STARLINK-1894
1 46744U 20074F   26090.83335647  .00376855  66228-4  10325-2 0  9999
2 46744  53.0374 165.6032 0010176   9.0159 115.4925 15.93436921  5983
